{
"type": "FeatureCollection",
"name": "buildings",
"crs": { "type": "name", "properties": { "name": "urn:ogc:def:crs:EPSG::32633" } },
"features": [
{ "type": "Feature", "properties": { "class_id": 1, "class": "building", "area": 6.3599999999999373, "perimeter": 26.8 }, "geometry": { "type": "MultiPolygon", "coordinates": [ [ [ [ 494.4, 496.6 ], [ 494.0, 496.6 ], [ 494.0, 497.0 ], [ 494.4, 497.0 ], [ 494.4, 496.6 ] ] ], [ [ [ 494.0, 500.0 ], [ 493.8, 500.0 ], [ 493.8, 500.4 ], [ 494.0, 500.4 ], [ 494.0, 500.0 ] ] ], [ [ [ 495.2, 503.8 ], [ 495.4, 503.8 ], [ 495.4, 503.4 ], [ 495.0, 503.4 ], [ 495.0, 503.2 ], [ 494.8, 503.2 ], [ 494.8, 502.8 ], [ 494.6, 502.8 ], [ 494.6, 502.4 ], [ 494.4, 502.4 ], [ 494.4, 502.2 ], [ 494.2, 502.2 ], [ 494.2, 501.2 ], [ 494.0, 501.2 ], [ 494.0, 500.8 ], [ 493.6, 500.8 ], [ 493.6, 504.0 ], [ 495.2, 504.0 ], [ 495.2, 503.8 ] ] ], [ [ [ 504.4, 503.8 ], [ 504.0, 503.8 ], [ 504.0, 503.6 ], [ 502.0, 503.6 ], [ 502.0, 503.4 ], [ 498.4, 503.4 ], [ 498.4, 503.6 ], [ 498.0, 503.6 ], [ 498.0, 503.8 ], [ 499.0, 503.8 ], [ 499.0, 504.0 ], [ 504.4, 504.0 ], [ 504.4, 503.8 ] ] ] ] } }
]
}
